ONEWEB-0531             
1 54146U 22138AK  25018.46510044  .00000060  00000+0  11629-3 0  9993
2 54146  87.9254  16.8431 0002775  83.5031 276.6418 13.20773778112239
ONEWEB-0535             
1 54147U 22138AL  25018.13163544 -.00000120  00000+0 -33247-3 0  9996
2 54147  87.9142  47.3475 0002045  90.2387 269.8980 13.19726206109777
ONEWEB-0536             
1 54148U 22138AM  25018.07369896  .00000046  00000+0  81495-4 0  9992
2 54148  87.9251  16.9681 0002860  85.9824 274.1636 13.20772773112179
ONEWEB-0527             
1 54642U 22166A   25017.90592934  .00000051  00000+0  92274-4 0  9997
2 54642  87.9322 346.6689 0001846  86.2790 273.8555 13.21827162103919
ONEWEB-0528             
1 54643U 22166B   25017.98793358 -.00000024  00000+0 -90216-4 0  9995
2 54643  87.9325 346.6468 0001750  86.7297 273.4037 13.21823257103933
ONEWEB-0539             
1 54644U 22166C   25018.40269570  .00000071  00000+0  14036-3 0  9993
2 54644  87.9328 346.5692 0001649  78.5223 281.6096 13.21827736103987
ONEWEB-0540             
1 54645U 22166D   25018.58334491 -.00039892  00000+0 -99342-1 0  9994
2 54645  87.9332 346.5406 0001739  77.9117  76.8637 13.20248435104013
ONEWEB-0542             
1 54646U 22166E   25018.41215065  .00000061  00000+0  11531-3 0  9992
2 54646  87.9327 346.5660 0001703  68.6025 291.5291 13.21827437103990
